COMMENT,ORIGINATOR,NORAD_CAT_ID,OBJECT_NAME,OBJECT_TYPE,CLASSIFICATION_TYPE,INTLDES,EPOCH,EPOCH_MICROSECONDS,MEAN_MOTION,ECCENTRICITY,INCLINATION,RA_OF_ASC_NODE,ARG_OF_PERICENTER,MEAN_ANOMALY,EPHEMERIS_TYPE,ELEMENT_SET_NO,REV_AT_EPOCH,BSTAR,MEAN_MOTION_DOT,MEAN_MOTION_DDOT,FILE,TLE_LINE0,TLE_LINE1,TLE_LINE2,OBJECT_ID,OBJECT_NUMBER,SEMIMAJOR_AXIS,PERIOD,APOGEE,PERIGEE,DECAYED
"GENERATED VIA SPACETRACK.ORG API","18 SPCS","55091","SPACEBEE-164","PAYLOAD","U","23001CL","2023-03-22 16:10:36","695712","15.16525706","0.0014343","97.4878","142.6842","304.9283","55.0602","0","999","1197","0.0010427","0.00020352","0","3868201","0 SPACEBEE-164","1 55091U 23001CL  23081.67403583  .00020352  00000-0  10427-2 0  9994","2 55091  97.4878 142.6842 0014343 304.9283  55.0602 15.16525706 11970","2023-001CL","55091","6894.488","94.954","526.241","506.464","0"
"GENERATED VIA SPACETRACK.ORG API","18 SPCS","55091","SPACEBEE-164","PAYLOAD","U","23001CL","2023-03-23 03:15:42","392448","15.16543424","0.0014382","97.4873","143.1404","303.0707","56.9145","0","999","1204","0.00093268","0.00018202","0","3868494","0 SPACEBEE-164","1 55091U 23001CL  23082.13590732  .00018202  00000-0  93268-3 0  9995","2 55091  97.4873 143.1404 0014382 303.0707  56.9145 15.16543424 12047","2023-001CL","55091","6894.434","94.953","526.214","506.383","0"
"GENERATED VIA SPACETRACK.ORG API","18 SPCS","55091","SPACEBEE-164","PAYLOAD","U","23001CL","2023-03-23 17:30:49","49568","15.16568642","0.0014351","97.487","143.7265","300.5718","59.4098","0","999","1213","0.0010982","0.00021469","0","3868778","0 SPACEBEE-164","1 55091U 23001CL  23082.72973437  .00021469  00000-0  10982-2 0  9997","2 55091  97.4870 143.7265 0014351 300.5718  59.4098 15.16568642 12139","2023-001CL","55091","6894.357","94.951","526.116","506.328","0"
"GENERATED VIA SPACETRACK.ORG API","18 SPCS","55091","SPACEBEE-164","PAYLOAD","U","23001CL","2023-03-23 17:30:49","49568","15.16568642","0.0014351","97.487","143.7265","300.5718","59.4098","0","999","1213","0.0010982","0.00021469","0","3868816","0 SPACEBEE-164","1 55091U 23001CL  23082.72973437  .00021469  00000-0  10982-2 0  9997","2 55091  97.4870 143.7265 0014351 300.5718  59.4098 15.16568642 12139","2023-001CL","55091","6894.357","94.951","526.116","506.328","0"
"GENERATED VIA SPACETRACK.ORG API","18 SPCS","55091","SPACEBEE-164","PAYLOAD","U","23001CL","2023-03-24 03:00:52","735968","15.16599411","0.0014407","97.487","144.1175","299.187","60.7921","0","999","1219","0.0016061","0.00031499","0","3869191","0 SPACEBEE-164","1 55091U 23001CL  23083.12561037  .00031499  00000-0  16061-2 0  9999","2 55091  97.4870 144.1175 0014407 299.1870  60.7921 15.16599411 12192","2023-001CL","55091","6894.264","94.949","526.062","506.197","0"
"GENERATED VIA SPACETRACK.ORG API","18 SPCS","55091","SPACEBEE-164","PAYLOAD","U","23001CL","2023-03-24 09:20:54","742272","15.16669426","0.00144","97.4869","144.3779","297.9317","62.0458","0","999","1223","0.0050147","0.00099599","0","3869608","0 SPACEBEE-164","1 55091U 23001CL  23083.38952248  .00099599  00000-0  50147-2 0  9993","2 55091  97.4869 144.3779 0014400 297.9317  62.0458 15.16669426 12236","2023-001CL","55091","6894.052","94.945","525.844","505.990","0"
"GENERATED VIA SPACETRACK.ORG API","18 SPCS","55091","SPACEBEE-164","PAYLOAD","U","23001CL","2023-03-24 09:20:54","742272","15.16669426","0.00144","97.4869","144.3779","297.9317","62.0458","0","999","1223","0.0050147","0.00099599","0","3869846","0 SPACEBEE-164","1 55091U 23001CL  23083.38952248  .00099599  00000-0  50147-2 0  9993","2 55091  97.4869 144.3779 0014400 297.9317  62.0458 15.16669426 12236","2023-001CL","55091","6894.052","94.945","525.844","505.990","0"
"GENERATED VIA SPACETRACK.ORG API","18 SPCS","55091","SPACEBEE-164","PAYLOAD","U","23001CL","2023-03-24 15:40:56","495424","15.16646157","0.0014352","97.4869","144.6385","297.0262","62.9505","0","999","1227","0.0018514","0.00036392","0","3869829","0 SPACEBEE-164","1 55091U 23001CL  23083.65343166  .00036392  00000-0  18514-2 0  9990","2 55091  97.4869 144.6385 0014352 297.0262  62.9505 15.16646157 12270","2023-001CL","55091","6894.122","94.946","525.882","506.093","0"
"GENERATED VIA SPACETRACK.ORG API","18 SPCS","55091","SPACEBEE-164","PAYLOAD","U","23001CL","2023-03-24 22:00:58","99104","15.16654775","0.0014312","97.4868","144.8993","296.1825","63.7936","0","999","1231","0.0013718","0.00026919","0","3870109","0 SPACEBEE-164","1 55091U 23001CL  23083.91733911  .00026919  00000-0  13718-2 0  9995","2 55091  97.4868 144.8993 0014312 296.1825  63.7936 15.16654775 12314","2023-001CL","55091","6894.096","94.946","525.828","506.095","0"
"GENERATED VIA SPACETRACK.ORG API","18 SPCS","55091","SPACEBEE-164","PAYLOAD","U","23001CL","2023-03-25 02:45:59","94720","15.16667139","0.0014388","97.487","145.095","295.4694","64.505","0","999","1234","0.0013226","0.00025958","0","3870457","0 SPACEBEE-164","1 55091U 23001CL  23084.11526730  .00025958  00000-0  13226-2 0  9993","2 55091  97.4870 145.0950 0014388 295.4694  64.5050 15.16667139 12349","2023-001CL","55091","6894.059","94.945","525.843","506.005","0"
"GENERATED VIA SPACETRACK.ORG API","18 SPCS","55091","SPACEBEE-164","PAYLOAD","U","23001CL","2023-03-25 21:46:02","44704","15.16704485","0.0014279","97.4868","145.8769","292.5228","67.4493","0","999","1246","0.0011958","0.00023479","0","3871104","0 SPACEBEE-164","1 55091U 23001CL  23084.90696811  .00023479  00000-0  11958-2 0  9994","2 55091  97.4868 145.8769 0014279 292.5228  67.4493 15.16704485 12464","2023-001CL","55091","6893.946","94.943","525.655","505.967","0"
"GENERATED VIA SPACETRACK.ORG API","18 SPCS","55091","SPACEBEE-164","PAYLOAD","U","23001CL","2023-03-26 04:06:02","663424","15.16716572","0.0014285","97.4867","146.1375","291.5702","68.4008","0","999","1250","0.0011229","0.00022047","0","3871412","0 SPACEBEE-164","1 55091U 23001CL  23085.17086416  .00022047  00000-0  11229-2 0  9999","2 55091  97.4867 146.1375 0014285 291.5702  68.4008 15.16716572 12501","2023-001CL","55091","6893.909","94.942","525.622","505.926","0"
"GENERATED VIA SPACETRACK.ORG API","18 SPCS","55091","SPACEBEE-164","PAYLOAD","U","23001CL","2023-03-26 21:31:03","661824","15.16742427","0.001423","97.4866","146.8542","288.6683","71.3005","0","999","1261","0.0010306","0.00020239","0","3871964","0 SPACEBEE-164","1 55091U 23001CL  23085.89657016  .00020239  00000-0  10306-2 0  9994","2 55091  97.4866 146.8542 0014230 288.6683  71.3005 15.16742427 12618","2023-001CL","55091","6893.831","94.940","525.506","505.886","0"
"GENERATED VIA SPACETRACK.ORG API","18 SPCS","55091","SPACEBEE-164","PAYLOAD","U","23001CL","2023-03-27 03:51:03","712032","15.16753693","0.0014217","97.4867","147.115","287.7485","72.2196","0","999","1265","0.0010014","0.00019668","0","3872569","0 SPACEBEE-164","1 55091U 23001CL  23086.16045963  .00019668  00000-0  10014-2 0  9997","2 55091  97.4867 147.1150 0014217 287.7485  72.2196 15.16753693 12655","2023-001CL","55091","6893.797","94.940","525.463","505.861","0"
"GENERATED VIA SPACETRACK.ORG API","18 SPCS","55091","SPACEBEE-164","PAYLOAD","U","23001CL","2023-03-27 21:16:03","138816","15.16780165","0.0014236","97.4867","147.8315","284.8553","75.1103","0","999","1276","0.00095235","0.00018713","0","3872897","0 SPACEBEE-164","1 55091U 23001CL  23086.88614744  .00018713  00000-0  95235-3 0  9994","2 55091  97.4867 147.8315 0014236 284.8553  75.1103 15.16780165 12766","2023-001CL","55091","6893.716","94.938","525.395","505.768","0"
"GENERATED VIA SPACETRACK.ORG API","18 SPCS","55091","SPACEBEE-164","PAYLOAD","U","23001CL","2023-03-27 21:16:03","138816","15.16780165","0.0014236","97.4867","147.8315","284.8553","75.1103","0","999","1276","0.00095235","0.00018713","0","3872915","0 SPACEBEE-164","1 55091U 23001CL  23086.88614744  .00018713  00000-0  95235-3 0  9994","2 55091  97.4867 147.8315 0014236 284.8553  75.1103 15.16780165 12766","2023-001CL","55091","6893.716","94.938","525.395","505.768","0"
"GENERATED VIA SPACETRACK.ORG API","18 SPCS","55091","SPACEBEE-164","PAYLOAD","U","23001CL","2023-03-28 03:36:02","620512","15.16791077","0.0014236","97.4867","148.0921","283.8344","76.1305","0","999","1280","0.00095101","0.00018693","0","3873565","0 SPACEBEE-164","1 55091U 23001CL  23087.15003033  .00018693  00000-0  95101-3 0  9997","2 55091  97.4867 148.0921 0014236 283.8344  76.1305 15.16791077 12803","2023-001CL","55091","6893.683","94.937","525.362","505.735","0"
"GENERATED VIA SPACETRACK.ORG API","18 SPCS","55091","SPACEBEE-164","PAYLOAD","U","23001CL","2023-03-28 17:51:00","931392","15.1681477","0.001426","97.4865","148.6785","281.5515","78.4117","0","999","1289","0.0009953","0.00019582","0","3873921","0 SPACEBEE-164","1 55091U 23001CL  23087.74376078  .00019582  00000-0  99530-3 0  9992","2 55091  97.4865 148.6785 0014260 281.5515  78.4117 15.16814770 12898","2023-001CL","55091","6893.612","94.936","525.307","505.646","0"
"GENERATED VIA SPACETRACK.ORG API","18 SPCS","55091","SPACEBEE-164","PAYLOAD","U","23001CL","2023-03-29 03:20:59","291232","15.16834042","0.0014276","97.4865","149.0694","279.9847","79.9775","0","999","1295","0.0010928","0.00021525","0","3874225","0 SPACEBEE-164","1 55091U 23001CL  23088.13957513  .00021525  00000-0  10928-2 0  9998","2 55091  97.4865 149.0694 0014276 279.9847  79.9775 15.16834042 12955","2023-001CL","55091","6893.553","94.935","525.259","505.577","0"
"GENERATED VIA SPACETRACK.ORG API","18 SPCS","55091","SPACEBEE-164","PAYLOAD","U","23001CL","2023-03-29 03:20:59","291232","15.16834042","0.0014276","97.4865","149.0694","279.9847","79.9775","0","999","1295","0.0010928","0.00021525","0","3874492","0 SPACEBEE-164","1 55091U 23001CL  23088.13957513  .00021525  00000-0  10928-2 0  9998","2 55091  97.4865 149.0694 0014276 279.9847  79.9775 15.16834042 12955","2023-001CL","55091","6893.553","94.935","525.259","505.577","0"
